{"type":"FeatureCollection","features":[{"type":"Feature","geometry":{"type":"Polygon","coordinates":[[[2.09779,41.39396],[2.09695,41.39435],[2.09677,41.39436],[2.09408,41.39398],[2.09388,41.39394],[2.09359,41.39375],[2.09245,41.39284],[2.09212,41.39253],[2.09067,41.39097],[2.09,41.39021],[2.08852,41.38978],[2.08824,41.38981],[2.08718,41.38965],[2.08647,41.38938],[2.08548,41.38887],[2.08419,41.38774],[2.08392,41.38698],[2.08373,41.38571],[2.08373,41.38531],[2.08365,41.38487],[2.08333,41.38389],[2.08287,41.38281],[2.08202,41.38295],[2.08191,41.38207],[2.08189,41.38175],[2.08107,41.38132],[2.08027,41.38091],[2.08029,41.3806],[2.08066,41.37921],[2.08076,41.3789],[2.08066,41.37831],[2.08024,41.37769],[2.07955,41.37711],[2.07746,41.3759],[2.0766,41.37556],[2.0764,41.37542],[2.0762,41.37515],[2.07584,41.37421],[2.07576,41.37404],[2.07565,41.37387],[2.07523,41.3734],[2.07556,41.37314],[2.07836,41.37104],[2.07905,41.36984],[2.08049,41.36726],[2.08153,41.36786],[2.08355,41.36592],[2.08538,41.36595],[2.08639,41.36662],[2.08678,41.36678],[2.08786,41.36903],[2.09129,41.36911],[2.09178,41.36895],[2.0918,41.36881],[2.09192,41.36858],[2.09202,41.36844],[2.09243,41.368],[2.09398,41.36712],[2.09928,41.36866],[2.09873,41.37023],[2.10129,41.37396],[2.10128,41.37417],[2.10123,41.37457],[2.10026,41.37642],[2.10034,41.37655],[2.10212,41.37772],[2.10332,41.37898],[2.10283,41.38058],[2.10259,41.38069],[2.10241,41.38084],[2.10203,41.38122],[2.10188,41.38148],[2.10176,41.38173],[2.10124,41.38293],[2.10211,41.38757],[2.10188,41.38765],[2.10159,41.38779],[2.10117,41.38801],[2.10071,41.38826],[2.10059,41.38841],[2.10031,41.38895],[2.10021,41.3893],[2.09998,41.39027],[2.09986,41.39079],[2.09983,41.39098],[2.09978,41.39146],[2.09978,41.39165],[2.0998,41.39182],[2.0998,41.392],[2.09972,41.39211],[2.09923,41.3927],[2.09913,41.39281],[2.09891,41.39297],[2.09866,41.39303],[2.09797,41.39336],[2.09779,41.39396]]]},"properties":{"codi_ine":"08077","nom":"Esplugues de Llobregat","comarca":"Baix Llobregat"}},{"type":"Feature","geometry":{"type":"Polygon","coordinates":[[[2.10053,41.33604],[2.10137,41.33633],[2.10333,41.33647],[2.1369,41.34845],[2.13743,41.34888],[2.13706,41.34928],[2.13674,41.34962],[2.13624,41.3501],[2.13562,41.35072],[2.13526,41.35111],[2.13404,41.35267],[2.13359,41.35334],[2.13284,41.3545],[2.13233,41.35571],[2.13252,41.35578],[2.13271,41.35587],[2.13278,41.35595],[2.1331,41.35688],[2.13319,41.35742],[2.13321,41.35802],[2.13322,41.35876],[2.13325,41.35929],[2.13332,41.3599],[2.13398,41.36053],[2.13472,41.36111],[2.1355,41.36209],[2.13536,41.36224],[2.13495,41.36257],[2.13407,41.36341],[2.13303,41.36444],[2.13247,41.36611],[2.13173,41.36779],[2.13164,41.36798],[2.13071,41.36947],[2.13004,41.37009],[2.12973,41.37036],[2.12938,41.37064],[2.12913,41.3708],[2.12886,41.37095],[2.12855,41.37107],[2.12783,41.37135],[2.12693,41.3719],[2.12476,41.3733],[2.12402,41.37396],[2.12288,41.37502],[2.12251,41.37521],[2.12206,41.37544],[2.12178,41.37575],[2.12161,41.37595],[2.12146,41.37626],[2.12144,41.37636],[2.12149,41.37669],[2.12154,41.37707],[2.12144,41.37799],[2.12109,41.37773],[2.11933,41.37668],[2.11791,41.37585],[2.1178,41.37579],[2.11653,41.37581],[2.11081,41.37592],[2.11003,41.37594],[2.1096,41.37597],[2.10911,41.37663],[2.10815,41.37773],[2.10773,41.37814],[2.1069,41.37877],[2.10646,41.37897],[2.10554,41.37927],[2.105,41.37934],[2.10283,41.38058],[2.10332,41.37898],[2.10212,41.37772],[2.10034,41.37655],[2.10026,41.37642],[2.10123,41.37457],[2.10128,41.37417],[2.10129,41.37396],[2.09873,41.37023],[2.09928,41.36866],[2.09398,41.36712],[2.09243,41.368],[2.09202,41.36844],[2.09192,41.36858],[2.0918,41.36881],[2.09178,41.36895],[2.09129,41.36911],[2.08786,41.36903],[2.08678,41.36678],[2.0868,41.3662],[2.08698,41.36476],[2.08705,41.36453],[2.08728,41.36431],[2.08744,41.36421],[2.08801,41.36405],[2.08936,41.36361],[2.08918,41.36301],[2.09045,41.36158],[2.09146,41.36092],[2.09313,41.35927],[2.09317,41.35922],[2.09359,41.35852],[2.09514,41.35895],[2.09544,41.35903],[2.0956,41.35904],[2.09586,41.35856],[2.09552,41.35844],[2.09663,41.35669],[2.09717,41.35586],[2.09755,41.35538],[2.09849,41.35398],[2.09988,41.35192],[2.09757,41.35091],[2.09724,41.35076],[2.09545,41.34985],[2.09479,41.34949],[2.09331,41.34865],[2.0923,41.34807],[2.09229,41.34774],[2.09226,41.34733],[2.09221,41.34694],[2.09212,41.34642],[2.09198,41.34579],[2.09182,41.34526],[2.09172,41.34497],[2.09157,41.34458],[2.09138,41.34413],[2.09118,41.34372],[2.091,41.34339],[2.09083,41.34309],[2.09061,41.34274],[2.0904,41.34243],[2.08998,41.34186],[2.08972,41.34153],[2.08952,41.3413],[2.09207,41.34055],[2.09313,41.34019],[2.09379,41.3399],[2.09444,41.3396],[2.09522,41.33921],[2.09606,41.33877],[2.09856,41.33738],[2.09985,41.33662],[2.10053,41.33604]]]},"properties":{"codi_ine":"08101","nom":"l'Hospitalet de Llobregat","comarca":"Barcelonès"}},{"type":"Feature","geometry":{"type":"Polygon","coordinates":[[[2.05936,41.43539],[2.05949,41.43583],[2.05954,41.43614],[2.05953,41.43635],[2.05943,41.4367],[2.05968,41.4374],[2.05985,41.43765],[2.06059,41.43753],[2.06132,41.4375],[2.06165,41.43761],[2.0621,41.43822],[2.06274,41.43961],[2.06382,41.44178],[2.06418,41.44214],[2.06396,41.44321],[2.06388,41.44345],[2.06364,41.44377],[2.06192,41.44465],[2.06077,41.44499],[2.05955,41.44491],[2.05762,41.44494],[2.057,41.44495],[2.05657,41.445],[2.05625,41.44506],[2.05596,41.44522],[2.05489,41.44554],[2.05475,41.44556],[2.0543,41.44552],[2.05415,41.44548],[2.05402,41.44541],[2.05375,41.44523],[2.05259,41.44499],[2.05155,41.44491],[2.04983,41.44465],[2.0484,41.44462],[2.048,41.44471],[2.04719,41.44486],[2.04698,41.44489],[2.04657,41.44488],[2.04638,41.44486],[2.04572,41.44472],[2.0455,41.44464],[2.04381,41.44445],[2.04242,41.4444],[2.04105,41.4442],[2.04042,41.44389],[2.0401,41.44361],[2.03996,41.4435],[2.03914,41.44296],[2.03853,41.44262],[2.03803,41.44238],[2.03756,41.44219],[2.03728,41.44229],[2.03695,41.44223],[2.03609,41.44206],[2.03514,41.44181],[2.03491,41.44172],[2.0347,41.44166],[2.0346,41.44165],[2.03295,41.44169],[2.03278,41.44102],[2.03274,41.43969],[2.03188,41.43874],[2.03164,41.4386],[2.03056,41.43795],[2.03007,41.43757],[2.02999,41.43747],[2.02991,41.43734],[2.02991,41.43696],[2.02942,41.43605],[2.0286,41.43468],[2.02826,41.43363],[2.02745,41.4329],[2.027,41.43262],[2.02445,41.43137],[2.0213,41.43036],[2.02041,41.43027],[2.01944,41.43004],[2.01926,41.42974],[2.01896,41.42889],[2.01846,41.4276],[2.01802,41.42728],[2.01791,41.42726],[2.01736,41.42764],[2.0171,41.42788],[2.01073,41.42583],[2.00818,41.42449],[2.00911,41.42171],[2.00886,41.42161],[2.00855,41.42162],[2.00831,41.42169],[2.00737,41.422],[2.007,41.42204],[2.0056,41.42144],[2.00584,41.421],[2.0062,41.42024],[2.00726,41.41737],[2.00774,41.41542],[2.00812,41.41408],[2.00851,41.41295],[2.00901,41.41199],[2.00971,41.41098],[2.01049,41.4102],[2.01093,41.40966],[2.01124,41.40914],[2.01165,41.40833],[2.01203,41.40781],[2.01262,41.40714],[2.01305,41.40658],[2.01336,41.40616],[2.01444,41.40455],[2.01482,41.40389],[2.0153,41.40294],[2.01602,41.40161],[2.01632,41.40106],[2.01717,41.39967],[2.01864,41.39747],[2.01913,41.39663],[2.01982,41.39545],[2.02102,41.39301],[2.02125,41.39238],[2.02145,41.39132],[2.02182,41.38978],[2.02291,41.39014],[2.02464,41.39112],[2.02698,41.39243],[2.02861,41.39332],[2.03239,41.39534],[2.03326,41.39577],[2.03424,41.39626],[2.03478,41.39662],[2.03532,41.39721],[2.03489,41.39797],[2.03472,41.39819],[2.03386,41.39889],[2.03291,41.39997],[2.03491,41.40126],[2.0362,41.40228],[2.03735,41.40331],[2.03778,41.40369],[2.03807,41.40384],[2.03911,41.4042],[2.03925,41.40433],[2.03941,41.40453],[2.03957,41.40487],[2.0402,41.40605],[2.04051,41.40643],[2.0409,41.40704],[2.04115,41.40817],[2.0413,41.40822],[2.04161,41.40828],[2.04199,41.40834],[2.04219,41.40835],[2.04236,41.40833],[2.04258,41.40829],[2.04388,41.40851],[2.04484,41.40881],[2.0454,41.40904],[2.04763,41.41022],[2.0495,41.41067],[2.04892,41.41129],[2.04826,41.41165],[2.04803,41.41153],[2.04768,41.41156],[2.04761,41.41158],[2.04739,41.41176],[2.04736,41.41182],[2.04803,41.41327],[2.04821,41.41356],[2.04856,41.41386],[2.04895,41.41403],[2.04901,41.41403],[2.0496,41.4137],[2.05044,41.41415],[2.05148,41.41471],[2.05158,41.41475],[2.05187,41.4148],[2.05227,41.41478],[2.05263,41.41473],[2.05357,41.41458],[2.05394,41.41441],[2.05456,41.41409],[2.05464,41.41395],[2.05523,41.41447],[2.05594,41.41516],[2.0569,41.416],[2.05696,41.41656],[2.05706,41.41766],[2.05705,41.4188],[2.05686,41.4192],[2.05663,41.41975],[2.0564,41.42044],[2.05644,41.42096],[2.05649,41.4212],[2.05647,41.42136],[2.05622,41.4217],[2.05608,41.42183],[2.05554,41.42227],[2.05551,41.42229],[2.05423,41.42272],[2.05252,41.42382],[2.05244,41.42389],[2.05233,41.42423],[2.05243,41.42444],[2.05289,41.42482],[2.05326,41.42501],[2.05466,41.42528],[2.05587,41.42548],[2.05679,41.42581],[2.05747,41.42622],[2.05766,41.42642],[2.05768,41.4268],[2.05755,41.42713],[2.05758,41.42751],[2.05769,41.4279],[2.05799,41.42827],[2.05826,41.42877],[2.05845,41.42918],[2.05845,41.42959],[2.05844,41.4309],[2.05842,41.4313],[2.05785,41.4326],[2.05779,41.4329],[2.05748,41.43461],[2.05749,41.43468],[2.05767,41.43581],[2.05811,41.43574],[2.05881,41.43556],[2.05936,41.43539]]]},"properties":{"codi_ine":"08123","nom":"Molins de Rei","comarca":"Baix Llobregat"}},{"type":"Feature","geometry":{"type":"MultiPolygon","coordinates":[[[[2.18908,41.51549],[2.18903,41.51564],[2.1889,41.51596],[2.18877,41.51616],[2.18841,41.51642],[2.18803,41.51666],[2.18795,41.5167],[2.18758,41.51681],[2.18648,41.51708],[2.18597,41.51707],[2.1854,41.51698],[2.18517,41.51696],[2.18485,41.51695],[2.18462,41.51697],[2.1839,41.51707],[2.18232,41.51731],[2.18214,41.51734],[2.18181,41.51742],[2.18128,41.51758],[2.18106,41.51767],[2.18007,41.51826],[2.17894,41.51883],[2.17832,41.51902],[2.17779,41.51926],[2.17676,41.52006],[2.17506,41.52078],[2.17472,41.52092],[2.17406,41.52062],[2.17402,41.52057],[2.17376,41.5199],[2.17373,41.51974],[2.17372,41.5195],[2.17364,41.51849],[2.1736,41.51802],[2.17327,41.51752],[2.17297,41.51751],[2.17247,41.51747],[2.17234,41.51745],[2.17215,41.51738],[2.17142,41.51706],[2.17111,41.5169],[2.17108,41.51682],[2.17106,41.51647],[2.17109,41.51619],[2.17109,41.51541],[2.17021,41.51482],[2.17002,41.51488],[2.16924,41.5151],[2.1686,41.51527],[2.16698,41.51555],[2.16579,41.51545],[2.16574,41.51542],[2.16553,41.51538],[2.16541,41.51538],[2.16494,41.51544],[2.16468,41.51548],[2.16397,41.51565],[2.16382,41.5157],[2.16336,41.516],[2.16317,41.51607],[2.16266,41.51613],[2.16262,41.51581],[2.16251,41.5147],[2.16245,41.51351],[2.16216,41.51303],[2.16182,41.51257],[2.16164,41.51195],[2.16161,41.5118],[2.16161,41.51166],[2.16164,41.51129],[2.16106,41.51032],[2.16118,41.50935],[2.16073,41.5083],[2.15955,41.50777],[2.159,41.50739],[2.15899,41.50738],[2.15946,41.50703],[2.15981,41.50683],[2.16014,41.50669],[2.16054,41.50648],[2.16068,41.50638],[2.16094,41.50611],[2.16109,41.50593],[2.16132,41.50564],[2.1621,41.50462],[2.16368,41.50274],[2.1644,41.50175],[2.16463,41.50128],[2.16466,41.50114],[2.16483,41.50074],[2.16489,41.50065],[2.1651,41.50042],[2.16564,41.49995],[2.16583,41.49981],[2.16596,41.49972],[2.16623,41.49947],[2.1664,41.4992],[2.16691,41.49828],[2.16702,41.49804],[2.1673,41.49751],[2.16759,41.49703],[2.16802,41.49642],[2.16821,41.49624],[2.16851,41.49611],[2.16904,41.49584],[2.16974,41.49539],[2.17016,41.4951],[2.17,41.4949],[2.1699,41.49481],[2.17108,41.49389],[2.17308,41.49279],[2.1733,41.49266],[2.17327,41.49262],[2.17181,41.49138],[2.16948,41.48942],[2.16917,41.48889],[2.16784,41.48931],[2.165,41.48992],[2.16317,41.49035],[2.16079,41.49082],[2.16067,41.49063],[2.15984,41.48901],[2.15891,41.48863],[2.15862,41.48857],[2.15824,41.48853],[2.15676,41.48885],[2.15627,41.48902],[2.15575,41.48927],[2.15514,41.48957],[2.15314,41.48983],[2.15277,41.48989],[2.15237,41.48968],[2.15326,41.48863],[2.15362,41.48831],[2.15524,41.48724],[2.15731,41.48611],[2.15958,41.48479],[2.15906,41.48377],[2.15863,41.48329],[2.15724,41.48184],[2.15771,41.47995],[2.15417,41.47515],[2.1548,41.47491],[2.15535,41.47469],[2.15652,41.4731],[2.15571,41.46724],[2.15624,41.46702],[2.15826,41.46822],[2.15868,41.46827],[2.15855,41.46785],[2.15843,41.46764],[2.15826,41.46749],[2.15807,41.46716],[2.15807,41.46706],[2.15845,41.46644],[2.15865,41.46628],[2.15962,41.46583],[2.1598,41.46547],[2.15985,41.46473],[2.15983,41.4646],[2.15967,41.46427],[2.15921,41.46348],[2.15871,41.46279],[2.15825,41.462],[2.15779,41.46106],[2.15852,41.46024],[2.15782,41.45954],[2.15738,41.45863],[2.15731,41.45839],[2.15722,41.45788],[2.15697,41.45611],[2.15744,41.45568],[2.1578,41.45565],[2.15801,41.4555],[2.15836,41.45486],[2.15856,41.45375],[2.15584,41.44993],[2.1567,41.44985],[2.15816,41.44995],[2.15859,41.45026],[2.15897,41.45052],[2.15956,41.45052],[2.16104,41.45033],[2.16239,41.44999],[2.16269,41.44983],[2.16279,41.44979],[2.16298,41.44977],[2.16389,41.44977],[2.16414,41.44982],[2.16417,41.44987],[2.16429,41.45039],[2.16436,41.45057],[2.1644,41.45064],[2.16476,41.45106],[2.16479,41.45109],[2.16508,41.45122],[2.16531,41.45131],[2.16551,41.45144],[2.16558,41.45152],[2.16559,41.45167],[2.16557,41.4518],[2.16539,41.45215],[2.16533,41.45225],[2.16484,41.45284],[2.16483,41.45363],[2.16489,41.45405],[2.16451,41.45501],[2.16441,41.45512],[2.16417,41.45579],[2.16423,41.45604],[2.16478,41.45689],[2.16532,41.45769],[2.16567,41.45819],[2.16616,41.45847],[2.16644,41.45871],[2.16692,41.45917],[2.16733,41.46021],[2.16826,41.4607],[2.16955,41.46068],[2.1719,41.46127],[2.17376,41.46254],[2.17436,41.46302],[2.17452,41.46348],[2.17492,41.46385],[2.17562,41.46375],[2.1778,41.46424],[2.17885,41.46448],[2.18071,41.46494],[2.18042,41.46509],[2.18014,41.46527],[2.17984,41.46551],[2.17947,41.46588],[2.17917,41.46621],[2.17894,41.46653],[2.17879,41.4668],[2.17867,41.46708],[2.17861,41.46742],[2.17861,41.46769],[2.17864,41.46795],[2.17869,41.46818],[2.17941,41.46759],[2.18051,41.46766],[2.18069,41.46767],[2.18169,41.46784],[2.18239,41.468],[2.1831,41.46816],[2.18362,41.46828],[2.18379,41.4683],[2.18407,41.4683],[2.18442,41.46825],[2.18458,41.4682],[2.18538,41.4678],[2.1858,41.46776],[2.18706,41.46772],[2.18893,41.47084],[2.18914,41.4708],[2.19065,41.47061],[2.19315,41.47191],[2.19329,41.47203],[2.1934,41.4721],[2.19376,41.47226],[2.19398,41.47234],[2.19414,41.47238],[2.19451,41.47244],[2.19519,41.4724],[2.19552,41.47235],[2.1964,41.47249],[2.19814,41.4729],[2.19841,41.47302],[2.19881,41.47317],[2.19946,41.47338],[2.19975,41.47342],[2.19987,41.47338],[2.20422,41.4712],[2.20447,41.471],[2.20463,41.47092],[2.20592,41.47041],[2.20615,41.47035],[2.20634,41.47032],[2.20659,41.47031],[2.20703,41.47032],[2.20893,41.47043],[2.2097,41.47059],[2.20989,41.47068],[2.21043,41.47089],[2.21063,41.47096],[2.21082,41.471],[2.21095,41.47101],[2.21097,41.47107],[2.21109,41.47115],[2.21133,41.4712],[2.21173,41.47122],[2.21227,41.47122],[2.21272,41.4713],[2.21327,41.47143],[2.21339,41.4715],[2.2138,41.47189],[2.2163,41.47435],[2.21662,41.47476],[2.21684,41.47517],[2.21707,41.47571],[2.21756,41.47701],[2.21744,41.47766],[2.2162,41.47764],[2.21513,41.47795],[2.21391,41.47799],[2.21269,41.47826],[2.21181,41.48033],[2.21182,41.48048],[2.21205,41.48074],[2.21226,41.48085],[2.21249,41.48095],[2.21266,41.481],[2.21393,41.48195],[2.21513,41.4834],[2.2157,41.48434],[2.21584,41.48458],[2.21635,41.48583],[2.21592,41.48655],[2.21545,41.48723],[2.21652,41.4881],[2.21684,41.48832],[2.21713,41.48845],[2.2181,41.48837],[2.21917,41.48904],[2.22022,41.48912],[2.22307,41.49061],[2.22336,41.49101],[2.22366,41.49139],[2.22442,41.49223],[2.22469,41.49252],[2.22427,41.49403],[2.22361,41.49494],[2.22339,41.49615],[2.2211,41.49667],[2.21923,41.49684],[2.21505,41.49781],[2.21096,41.49925],[2.20796,41.50113],[2.20766,41.50175],[2.20669,41.50233],[2.2063,41.50252],[2.20561,41.50283],[2.20527,41.50296],[2.20513,41.50303],[2.20472,41.50329],[2.20381,41.5039],[2.20317,41.50347],[2.2027,41.50312],[2.20194,41.50241],[2.20139,41.50202],[2.20087,41.50166],[2.20048,41.50142],[2.19999,41.50182],[2.19962,41.50214],[2.19943,41.50238],[2.19932,41.50258],[2.19913,41.50284],[2.19887,41.50317],[2.19805,41.50413],[2.19774,41.50445],[2.19705,41.50506],[2.19605,41.50587],[2.1951,41.50656],[2.194,41.5075],[2.19339,41.50802],[2.19325,41.50828],[2.19263,41.50925],[2.19192,41.51021],[2.1916,41.51056],[2.19106,41.51119],[2.19044,41.51202],[2.1902,41.51235],[2.18992,41.51281],[2.18979,41.51305],[2.18952,41.51365],[2.1894,41.51393],[2.18924,41.51467],[2.18908,41.51549]]],[[[2.18761,41.56627],[2.19047,41.56682],[2.19115,41.5673],[2.19125,41.56733],[2.19319,41.56777],[2.19307,41.56951],[2.19447,41.5703],[2.19572,41.57126],[2.19666,41.5717],[2.19675,41.57183],[2.19677,41.57199],[2.19672,41.57226],[2.19653,41.57226],[2.19598,41.57222],[2.19585,41.5726],[2.19584,41.57275],[2.19587,41.5729],[2.19609,41.57344],[2.19643,41.57336],[2.19698,41.57326],[2.19731,41.57375],[2.19624,41.57483],[2.19624,41.57498],[2.19619,41.57476],[2.19613,41.57465],[2.19578,41.57435],[2.1956,41.57423],[2.19513,41.57395],[2.19461,41.57385],[2.19411,41.57381],[2.19266,41.57378],[2.19082,41.57352],[2.18893,41.57328],[2.18802,41.5731],[2.18648,41.57254],[2.18654,41.57238],[2.18663,41.57192],[2.18673,41.57109],[2.18673,41.57064],[2.18674,41.57036],[2.18705,41.56923],[2.18731,41.56846],[2.18733,41.56837],[2.18755,41.56705],[2.18758,41.56672],[2.18761,41.56627]]]]},"properties":{"codi_ine":"08125","nom":"Montcada i Reixac","comarca":"Vallès Occidental"}},{"type":"Feature","geometry":{"type":"Polygon","coordinates":[[[2.08952,41.3413],[2.08816,41.34234],[2.08706,41.34316],[2.08612,41.34393],[2.08515,41.34491],[2.08407,41.34608],[2.08379,41.34631],[2.08351,41.34648],[2.08332,41.34656],[2.08296,41.34666],[2.08272,41.34672],[2.08245,41.34677],[2.08196,41.34671],[2.08159,41.34662],[2.08123,41.34651],[2.08094,41.3464],[2.08028,41.34633],[2.07958,41.34629],[2.07893,41.34645],[2.07819,41.34665],[2.07759,41.34682],[2.07704,41.34704],[2.0766,41.3472],[2.07572,41.34749],[2.07524,41.3476],[2.07477,41.34769],[2.07441,41.34773],[2.07388,41.34774],[2.07343,41.34767],[2.073,41.3475],[2.07273,41.34728],[2.07258,41.34708],[2.07231,41.34662],[2.07223,41.34635],[2.07217,41.34597],[2.07227,41.34517],[2.07217,41.34494],[2.07202,41.34475],[2.07174,41.34439],[2.07124,41.34417],[2.07056,41.34396],[2.07033,41.34392],[2.07006,41.34398],[2.06943,41.34426],[2.06877,41.34465],[2.06871,41.3439],[2.0701,41.34078],[2.07188,41.33891],[2.07243,41.33896],[2.07323,41.33921],[2.0727,41.34002],[2.07265,41.34012],[2.07303,41.34029],[2.07417,41.34079],[2.07508,41.34118],[2.0756,41.34139],[2.07578,41.34224],[2.07659,41.34236],[2.0775,41.34109],[2.07814,41.34019],[2.07849,41.33969],[2.0775,41.33925],[2.07643,41.33878],[2.07568,41.33836],[2.07498,41.33789],[2.0742,41.33725],[2.07326,41.33641],[2.0736,41.33606],[2.07201,41.33508],[2.07176,41.33534],[2.07104,41.3348],[2.07163,41.33368],[2.072,41.33226],[2.0715,41.33156],[2.07089,41.33126],[2.07027,41.33093],[2.06951,41.33051],[2.06726,41.32912],[2.06739,41.32896],[2.06783,41.32854],[2.06823,41.32819],[2.06911,41.32734],[2.06942,41.32702],[2.07,41.32636],[2.07102,41.3253],[2.07145,41.32496],[2.0722,41.32431],[2.07283,41.32373],[2.07281,41.32371],[2.07043,41.32251],[2.07051,41.32062],[2.07101,41.31972],[2.07001,41.31933],[2.06943,41.31912],[2.06839,41.3187],[2.06736,41.31824],[2.0669,41.31803],[2.06571,41.31748],[2.06329,41.3163],[2.06295,41.31562],[2.06371,41.31472],[2.06482,41.31304],[2.06508,41.31259],[2.06564,41.31158],[2.06575,41.31135],[2.06586,41.31103],[2.06679,41.30799],[2.06697,41.30736],[2.06532,41.3067],[2.06388,41.30654],[2.06261,41.30638],[2.06185,41.30625],[2.0596,41.30578],[2.05875,41.30559],[2.05894,41.30519],[2.05949,41.30402],[2.05983,41.30302],[2.05937,41.30293],[2.05884,41.30282],[2.05783,41.3026],[2.05736,41.3025],[2.05766,41.30177],[2.05818,41.30059],[2.05845,41.30001],[2.05888,41.2991],[2.05943,41.29784],[2.05983,41.2969],[2.06044,41.29546],[2.06084,41.29449],[2.06131,41.29335],[2.06158,41.29267],[2.0617,41.29233],[2.06604,41.29039],[2.06756,41.2883],[2.06786,41.28751],[2.06716,41.28749],[2.0687,41.28672],[2.06897,41.28658],[2.07024,41.28519],[2.07039,41.285],[2.07018,41.28228],[2.07474,41.27654],[2.07476,41.2767],[2.0749,41.27676],[2.07516,41.27685],[2.07553,41.27693],[2.0758,41.27701],[2.07627,41.27718],[2.07707,41.27748],[2.0777,41.27769],[2.07888,41.27807],[2.07989,41.27842],[2.08058,41.27864],[2.0815,41.27892],[2.08178,41.27899],[2.08221,41.27914],[2.08253,41.27932],[2.08272,41.27937],[2.08287,41.27939],[2.0834,41.27941],[2.08389,41.2796],[2.08419,41.27972],[2.08485,41.27987],[2.08513,41.27998],[2.08554,41.28016],[2.08597,41.2803],[2.08651,41.28043],[2.0868,41.28051],[2.0881,41.28089],[2.08885,41.28112],[2.08926,41.28126],[2.0901,41.28152],[2.09104,41.28183],[2.09182,41.28209],[2.09235,41.28226],[2.09284,41.28239],[2.09303,41.28245],[2.09433,41.28295],[2.09497,41.28321],[2.0953,41.28332],[2.09636,41.28361],[2.09722,41.2839],[2.09812,41.28423],[2.09903,41.28457],[2.09967,41.28485],[2.10039,41.28512],[2.10161,41.28564],[2.10263,41.28605],[2.10346,41.28636],[2.10399,41.28652],[2.10432,41.28662],[2.10464,41.28672],[2.10476,41.2868],[2.10533,41.28699],[2.1065,41.28736],[2.10686,41.28747],[2.10722,41.28754],[2.10752,41.28763],[2.10763,41.28771],[2.1081,41.28798],[2.1086,41.28819],[2.10963,41.28858],[2.11025,41.28878],[2.11112,41.28904],[2.11163,41.28924],[2.11217,41.28947],[2.11413,41.29033],[2.11441,41.29048],[2.11516,41.29093],[2.1155,41.29112],[2.11585,41.29131],[2.1166,41.29168],[2.1187,41.29276],[2.11897,41.2929],[2.11939,41.29317],[2.12112,41.29418],[2.1219,41.29463],[2.12226,41.29484],[2.12275,41.29516],[2.12322,41.29531],[2.12401,41.29562],[2.12424,41.29569],[2.12446,41.29574],[2.12461,41.29575],[2.12504,41.29564],[2.12523,41.29562],[2.12543,41.29566],[2.12592,41.29597],[2.12614,41.29609],[2.12739,41.29665],[2.12791,41.29687],[2.12829,41.29702],[2.12852,41.2971],[2.1289,41.29722],[2.12959,41.2974],[2.12989,41.29746],[2.13078,41.29759],[2.13195,41.29772],[2.13215,41.29773],[2.13306,41.29777],[2.13343,41.29777],[2.13418,41.29773],[2.13498,41.29766],[2.13544,41.29765],[2.13591,41.29767],[2.13608,41.29763],[2.13644,41.29718],[2.13654,41.29704],[2.13687,41.29639],[2.13705,41.29603],[2.13726,41.29556],[2.13738,41.29525],[2.13744,41.29506],[2.13751,41.29476],[2.13759,41.29434],[2.13764,41.29395],[2.13766,41.29346],[2.13767,41.29325],[2.13769,41.29318],[2.13779,41.29311],[2.13788,41.2931],[2.13796,41.29315],[2.13798,41.2932],[2.138,41.29363],[2.13797,41.29394],[2.13791,41.29437],[2.1378,41.29497],[2.13773,41.29524],[2.13761,41.29559],[2.13748,41.29589],[2.13725,41.29639],[2.13708,41.29669],[2.13695,41.2969],[2.1365,41.29755],[2.13706,41.3006],[2.13904,41.29907],[2.13988,41.29842],[2.1406,41.2979],[2.14136,41.29732],[2.142,41.29683],[2.14225,41.29663],[2.14258,41.29641],[2.14274,41.29632],[2.14324,41.29609],[2.14389,41.29582],[2.14424,41.29568],[2.1446,41.29556],[2.14507,41.29542],[2.14541,41.29534],[2.14608,41.29518],[2.14624,41.29515],[2.1468,41.29506],[2.14704,41.29503],[2.14759,41.295],[2.1483,41.29499],[2.14876,41.295],[2.14923,41.29502],[2.14978,41.29508],[2.15022,41.29515],[2.15048,41.2952],[2.15112,41.29533],[2.15163,41.29545],[2.15181,41.29551],[2.15222,41.29567],[2.15293,41.29596],[2.1531,41.29604],[2.15324,41.29615],[2.15326,41.29625],[2.15366,41.29651],[2.15413,41.29678],[2.15442,41.29697],[2.15464,41.29713],[2.155,41.29743],[2.15533,41.29772],[2.15575,41.29813],[2.15627,41.29867],[2.15803,41.30041],[2.15877,41.30116],[2.16049,41.30288],[2.16212,41.30451],[2.1636,41.30599],[2.16554,41.30794],[2.16632,41.30871],[2.1664,41.30867],[2.16668,41.30892],[2.16699,41.30936],[2.1672,41.30974],[2.16729,41.30995],[2.16743,41.31031],[2.16755,41.31077],[2.16758,41.31103],[2.16757,41.31143],[2.16752,41.3119],[2.16747,41.31216],[2.16739,41.31247],[2.16686,41.31401],[2.16649,41.31513],[2.16604,41.31653],[2.16585,41.31709],[2.16574,41.31736],[2.16566,41.31743],[2.16555,41.31743],[2.16542,41.31784],[2.16514,41.31778],[2.16533,41.31719],[2.16539,41.3172],[2.16563,41.3165],[2.16623,41.31467],[2.1666,41.31361],[2.16696,41.31248],[2.16709,41.31207],[2.16714,41.31186],[2.16718,41.31164],[2.16718,41.31147],[2.16716,41.31102],[2.16711,41.31058],[2.16707,41.3104],[2.16691,41.30997],[2.16682,41.30977],[2.16665,41.30948],[2.1665,41.30924],[2.16631,41.309],[2.16617,41.30892],[2.16537,41.30813],[2.16378,41.30654],[2.16295,41.30571],[2.15903,41.30178],[2.15728,41.30002],[2.1566,41.29934],[2.1559,41.29864],[2.15542,41.29816],[2.15524,41.29799],[2.1548,41.29759],[2.15437,41.29724],[2.15409,41.29703],[2.15359,41.29673],[2.1529,41.29634],[2.15265,41.29623],[2.15259,41.29623],[2.15243,41.29641],[2.15209,41.29683],[2.152,41.29696],[2.15167,41.29745],[2.15152,41.29771],[2.15144,41.29779],[2.15137,41.29777],[2.15111,41.29768],[2.15069,41.29754],[2.15026,41.29741],[2.14999,41.29734],[2.14955,41.29726],[2.1492,41.29721],[2.14878,41.29716],[2.14834,41.29714],[2.14784,41.29715],[2.14725,41.2972],[2.14706,41.29722],[2.14651,41.29732],[2.14619,41.29738],[2.14577,41.29751],[2.14531,41.29765],[2.14441,41.29801],[2.1438,41.29842],[2.14331,41.29882],[2.14294,41.29911],[2.14288,41.29914],[2.14274,41.29929],[2.14285,41.29944],[2.14319,41.29977],[2.14359,41.30021],[2.14461,41.30119],[2.14487,41.30147],[2.14514,41.30178],[2.14515,41.30184],[2.14506,41.30193],[2.14483,41.30202],[2.14436,41.30225],[2.14428,41.30232],[2.14432,41.30241],[2.14469,41.30279],[2.14493,41.30266],[2.14509,41.30284],[2.14477,41.30301],[2.14423,41.30248],[2.14415,41.30241],[2.14391,41.30251],[2.14341,41.30281],[2.14298,41.30305],[2.14287,41.30302],[2.14259,41.30312],[2.14244,41.30339],[2.14235,41.30404],[2.14235,41.30422],[2.1424,41.3043],[2.14279,41.30472],[2.14302,41.3048],[2.14326,41.30481],[2.14352,41.30467],[2.14398,41.30441],[2.14388,41.3043],[2.144,41.30424],[2.14474,41.30499],[2.14554,41.3058],[2.14683,41.30708],[2.14755,41.30781],[2.15495,41.31523],[2.15478,41.31532],[2.1545,41.31528],[2.15401,41.31569],[2.15372,41.31587],[2.15296,41.31628],[2.15291,41.31632],[2.15301,41.31646],[2.15343,41.31689],[2.15405,41.31751],[2.15451,41.31799],[2.15558,41.31905],[2.15642,41.3199],[2.15652,41.32005],[2.15656,41.32027],[2.1565,41.32046],[2.15634,41.32062],[2.15621,41.3207],[2.15567,41.32102],[2.15491,41.32145],[2.15423,41.32184],[2.15407,41.32192],[2.15387,41.32199],[2.15366,41.322],[2.15349,41.32198],[2.15238,41.32171],[2.15212,41.32169],[2.15207,41.3218],[2.15228,41.32183],[2.15242,41.32184],[2.15258,41.32198],[2.15265,41.3221],[2.15259,41.32219],[2.15259,41.32254],[2.1527,41.32272],[2.15271,41.32281],[2.15239,41.32292],[2.15245,41.32277],[2.15245,41.32272],[2.15237,41.32265],[2.15222,41.3226],[2.15205,41.3227],[2.15203,41.32274],[2.1521,41.32288],[2.15225,41.32297],[2.15173,41.32315],[2.15093,41.32185],[2.15082,41.32167],[2.1507,41.32153],[2.14986,41.32068],[2.14673,41.32076],[2.14374,41.32094],[2.14127,41.32109],[2.13977,41.32112],[2.13258,41.32085],[2.13212,41.32081],[2.13071,41.32077],[2.12852,41.32096],[2.1258,41.32135],[2.12314,41.32181],[2.12175,41.32207],[2.1189,41.32273],[2.11704,41.32332],[2.11565,41.32389],[2.11404,41.32488],[2.1123,41.32612],[2.11138,41.32725],[2.11013,41.32893],[2.10875,41.33073],[2.10838,41.3311],[2.10765,41.33175],[2.10583,41.33316],[2.10539,41.33349],[2.10479,41.33393],[2.10413,41.33434],[2.10313,41.3349],[2.10277,41.3351],[2.10225,41.33535],[2.10053,41.33604],[2.09985,41.33662],[2.09856,41.33738],[2.09606,41.33877],[2.09522,41.33921],[2.09444,41.3396],[2.09379,41.3399],[2.09313,41.34019],[2.09207,41.34055],[2.08952,41.3413]],[[2.15258,41.32005],[2.15336,41.32091],[2.15334,41.32099],[2.15312,41.32111],[2.1522,41.32148],[2.15215,41.32153],[2.15214,41.32163],[2.15267,41.32172],[2.15305,41.32182],[2.15345,41.32191],[2.15366,41.32194],[2.15386,41.32192],[2.15414,41.32181],[2.15539,41.3211],[2.15618,41.32067],[2.15633,41.32055],[2.15642,41.32045],[2.15647,41.32033],[2.15646,41.32011],[2.15637,41.31994],[2.15592,41.3195],[2.15544,41.31902],[2.15424,41.31781],[2.15338,41.31693],[2.15286,41.31639],[2.15255,41.31643],[2.15172,41.31689],[2.15071,41.31744],[2.1505,41.31755],[2.15047,41.31764],[2.15061,41.31785],[2.15162,41.31895],[2.15258,41.32005]]]},"properties":{"codi_ine":"08169","nom":"el Prat de Llobregat","comarca":"Baix Llobregat"}},{"type":"Feature","geometry":{"type":"Polygon","coordinates":[[[2.23742,41.42616],[2.2373,41.42624],[2.23619,41.42702],[2.23389,41.42892],[2.23145,41.43096],[2.23093,41.43071],[2.22961,41.43035],[2.22853,41.43028],[2.22643,41.42985],[2.22462,41.42922],[2.22447,41.4295],[2.22327,41.43132],[2.22251,41.4324],[2.22155,41.43204],[2.22095,41.43176],[2.22071,41.43159],[2.21957,41.43296],[2.2175,41.43222],[2.21693,41.43269],[2.21654,41.43307],[2.21566,41.43369],[2.21536,41.43377],[2.21469,41.43452],[2.21462,41.43489],[2.21467,41.43492],[2.21418,41.43463],[2.21363,41.43439],[2.21337,41.43438],[2.21304,41.4343],[2.21076,41.43343],[2.20892,41.43325],[2.2078,41.43308],[2.20612,41.43254],[2.20622,41.43211],[2.2065,41.43098],[2.20662,41.43067],[2.20701,41.42968],[2.20716,41.42937],[2.20726,41.42907],[2.20734,41.42811],[2.20736,41.42784],[2.20715,41.42712],[2.20674,41.42664],[2.20626,41.42593],[2.20632,41.42558],[2.20755,41.42503],[2.20777,41.42501],[2.20857,41.42522],[2.20995,41.4246],[2.20993,41.42435],[2.21115,41.42236],[2.21155,41.42181],[2.21213,41.42105],[2.21288,41.42074],[2.21372,41.42031],[2.21415,41.42005],[2.21439,41.41989],[2.21516,41.41932],[2.21658,41.41825],[2.21679,41.41806],[2.21713,41.41764],[2.2188,41.41596],[2.21994,41.41503],[2.22012,41.41487],[2.22129,41.41376],[2.22136,41.41368],[2.22131,41.41345],[2.22112,41.41306],[2.22291,41.41292],[2.2287,41.41244],[2.22818,41.41284],[2.22804,41.41274],[2.22791,41.41284],[2.22794,41.41302],[2.22756,41.41331],[2.22741,41.41339],[2.22717,41.41347],[2.22705,41.41349],[2.22687,41.4136],[2.22677,41.41385],[2.22661,41.41379],[2.22672,41.41352],[2.22603,41.41361],[2.22561,41.41296],[2.22553,41.41286],[2.22503,41.41323],[2.22583,41.41384],[2.22603,41.41394],[2.22614,41.41388],[2.22624,41.41388],[2.22642,41.41393],[2.22655,41.41405],[2.22647,41.41429],[2.22655,41.41442],[2.22704,41.41494],[2.22749,41.41546],[2.22771,41.41534],[2.22898,41.41369],[2.22924,41.41334],[2.22859,41.41306],[2.22865,41.41297],[2.22962,41.4134],[2.2299,41.41347],[2.23056,41.41261],[2.2307,41.41267],[2.23062,41.41278],[2.23055,41.4128],[2.22998,41.41355],[2.23275,41.41475],[2.23293,41.41467],[2.23139,41.41229],[2.22971,41.40969],[2.22946,41.4093],[2.2293,41.40937],[2.22918,41.40934],[2.22906,41.40907],[2.22905,41.409],[2.22912,41.40893],[2.22937,41.40881],[2.22946,41.4088],[2.22958,41.40882],[2.22974,41.40894],[2.2298,41.40901],[2.2298,41.40912],[2.22968,41.40921],[2.23347,41.41509],[2.2334,41.4152],[2.23325,41.41515],[2.23307,41.41491],[2.23266,41.41492],[2.2323,41.41483],[2.23222,41.41489],[2.23211,41.41499],[2.232,41.41518],[2.2319,41.41558],[2.2319,41.41581],[2.23197,41.41618],[2.23201,41.41631],[2.23215,41.4166],[2.2324,41.417],[2.23252,41.41726],[2.23267,41.41773],[2.23279,41.41793],[2.23291,41.41808],[2.23304,41.41819],[2.23317,41.41827],[2.23328,41.41829],[2.23341,41.41819],[2.23356,41.41836],[2.23337,41.41844],[2.23318,41.41855],[2.23306,41.4187],[2.23299,41.41896],[2.23299,41.41904],[2.23325,41.4196],[2.23344,41.41993],[2.23356,41.42008],[2.23369,41.42018],[2.2338,41.42013],[2.23388,41.42017],[2.23389,41.42033],[2.2337,41.42042],[2.2337,41.42049],[2.23375,41.42064],[2.23403,41.42132],[2.23418,41.42166],[2.23438,41.42208],[2.23457,41.42238],[2.23475,41.42261],[2.23485,41.42271],[2.23531,41.4232],[2.23574,41.42375],[2.23594,41.42404],[2.23607,41.4242],[2.23632,41.42441],[2.23651,41.42451],[2.23668,41.42452],[2.23673,41.42456],[2.23681,41.42473],[2.23675,41.4249],[2.23672,41.42511],[2.23675,41.42526],[2.23709,41.42578],[2.23727,41.42602],[2.23742,41.42616]]]},"properties":{"codi_ine":"08194","nom":"Sant Adrià de Besòs","comarca":"Barcelonès"}},{"type":"Feature","geometry":{"type":"Polygon","coordinates":[[[2.07518,41.5066],[2.07448,41.50712],[2.07397,41.50717],[2.07371,41.50716],[2.07349,41.50712],[2.0732,41.50701],[2.07285,41.50692],[2.07261,41.50689],[2.07232,41.5069],[2.0721,41.50693],[2.07159,41.50717],[2.07115,41.50738],[2.07104,41.50747],[2.07084,41.50767],[2.0708,41.50775],[2.07035,41.50838],[2.06944,41.50882],[2.0689,41.50901],[2.06825,41.50907],[2.06708,41.50923],[2.06696,41.50926],[2.0668,41.50934],[2.06663,41.5095],[2.06654,41.50964],[2.06652,41.50974],[2.06651,41.50992],[2.06657,41.51003],[2.0665,41.51037],[2.06621,41.51086],[2.06581,41.51137],[2.0649,41.51235],[2.06469,41.51263],[2.06459,41.51288],[2.06453,41.51308],[2.0645,41.51334],[2.06453,41.51386],[2.06459,41.51437],[2.06443,41.51731],[2.06433,41.51905],[2.06387,41.51964],[2.06298,41.51946],[2.0622,41.51939],[2.06116,41.51939],[2.06083,41.51931],[2.05987,41.51901],[2.05868,41.51879],[2.05801,41.51869],[2.0578,41.5185],[2.05768,41.51814],[2.05755,41.51776],[2.05748,41.51748],[2.05696,41.51653],[2.05687,41.5164],[2.05665,41.51613],[2.05653,41.51604],[2.0564,41.51601],[2.05546,41.51559],[2.05411,41.51488],[2.054,41.51481],[2.05372,41.51457],[2.05308,41.51398],[2.05279,41.51351],[2.05277,41.51341],[2.05264,41.51326],[2.0519,41.51272],[2.05159,41.51252],[2.05093,41.51218],[2.05445,41.50982],[2.05456,41.50924],[2.05454,41.50914],[2.05442,41.50898],[2.05431,41.50876],[2.05431,41.50845],[2.05433,41.50778],[2.05437,41.50749],[2.0544,41.50735],[2.05466,41.507],[2.05476,41.50686],[2.0555,41.50548],[2.05531,41.5054],[2.05561,41.50272],[2.0548,41.50289],[2.05376,41.50297],[2.05367,41.50279],[2.0535,41.50234],[2.05266,41.50114],[2.05257,41.50096],[2.05233,41.49951],[2.05252,41.49859],[2.05181,41.49762],[2.05084,41.49666],[2.05033,41.49559],[2.04999,41.49418],[2.04987,41.49327],[2.04918,41.49088],[2.04953,41.48955],[2.0495,41.48891],[2.0489,41.48769],[2.04868,41.48686],[2.04807,41.48616],[2.04766,41.48595],[2.04707,41.48581],[2.04633,41.48593],[2.04624,41.48596],[2.04578,41.48605],[2.04556,41.48607],[2.04531,41.48606],[2.04518,41.48603],[2.04496,41.48596],[2.04464,41.48581],[2.0441,41.48549],[2.04353,41.4851],[2.04348,41.48502],[2.04275,41.4838],[2.0422,41.48282],[2.04197,41.48209],[2.04168,41.48138],[2.04115,41.48091],[2.04103,41.48098],[2.04091,41.48102],[2.04046,41.48105],[2.04014,41.48102],[2.04,41.48096],[2.03987,41.48083],[2.03952,41.48009],[2.03845,41.47829],[2.03848,41.4775],[2.03859,41.47729],[2.0387,41.4772],[2.03901,41.47704],[2.03873,41.47632],[2.0376,41.47505],[2.03649,41.47379],[2.03579,41.47285],[2.03581,41.47272],[2.03569,41.47245],[2.03557,41.47226],[2.03528,41.47189],[2.03511,41.47175],[2.03461,41.47147],[2.03371,41.47041],[2.03311,41.46976],[2.03119,41.46849],[2.02942,41.46742],[2.02885,41.46693],[2.0285,41.46678],[2.02807,41.46667],[2.02789,41.46666],[2.02764,41.46669],[2.02721,41.46682],[2.02618,41.46722],[2.02485,41.46785],[2.02424,41.46807],[2.02191,41.46867],[2.02038,41.46901],[2.01916,41.46907],[2.01797,41.46886],[2.01714,41.46848],[2.0165,41.46799],[2.01578,41.46725],[2.01488,41.46616],[2.01463,41.46569],[2.0145,41.4652],[2.01445,41.46451],[2.01456,41.4643],[2.01463,41.46407],[2.01465,41.46381],[2.01461,41.46357],[2.01442,41.46331],[2.01413,41.46313],[2.01384,41.463],[2.01255,41.46246],[2.01088,41.46198],[2.01066,41.46192],[2.00915,41.46163],[2.00795,41.46152],[2.00663,41.46149],[2.00328,41.46168],[2.00298,41.46168],[2.00264,41.46164],[2.00238,41.4616],[2.00152,41.46127],[2.00103,41.46105],[2.0004,41.46068],[1.99973,41.46024],[2.01052,41.45665],[2.01098,41.45755],[2.01111,41.45787],[2.01122,41.45796],[2.01208,41.45827],[2.01233,41.45834],[2.01242,41.45835],[2.0129,41.45832],[2.01354,41.45824],[2.01519,41.45878],[2.01557,41.45898],[2.01596,41.45891],[2.01645,41.45875],[2.0168,41.45845],[2.01847,41.45821],[2.01911,41.45835],[2.01933,41.45838],[2.01982,41.45839],[2.02006,41.45834],[2.02073,41.45801],[2.02086,41.45773],[2.0209,41.45772],[2.0229,41.45756],[2.02339,41.45753],[2.02357,41.45747],[2.02394,41.45696],[2.02409,41.45671],[2.0241,41.45652],[2.02405,41.45604],[2.02396,41.45574],[2.02375,41.45527],[2.02356,41.45498],[2.0235,41.4548],[2.02362,41.45449],[2.02388,41.45408],[2.02438,41.45335],[2.02451,41.45308],[2.02458,41.45209],[2.02459,41.4519],[2.02451,41.45174],[2.0244,41.45159],[2.02406,41.45128],[2.02382,41.45112],[2.02375,41.45093],[2.02372,41.45069],[2.02387,41.45054],[2.02465,41.44994],[2.02571,41.4491],[2.02701,41.44699],[2.02708,41.44683],[2.02716,41.44675],[2.02805,41.44643],[2.0282,41.4464],[2.02891,41.44639],[2.02944,41.4464],[2.02993,41.44635],[2.02999,41.44633],[2.03038,41.44612],[2.03082,41.44587],[2.03114,41.44566],[2.03126,41.44555],[2.03133,41.4454],[2.0314,41.44503],[2.03141,41.44461],[2.03138,41.4444],[2.03131,41.44417],[2.03124,41.44403],[2.03123,41.44396],[2.03129,41.44359],[2.03138,41.44313],[2.03156,41.44267],[2.03166,41.44253],[2.03185,41.44233],[2.03202,41.4422],[2.03295,41.44169],[2.0346,41.44165],[2.0347,41.44166],[2.03491,41.44172],[2.03514,41.44181],[2.03609,41.44206],[2.03695,41.44223],[2.03728,41.44229],[2.03756,41.44219],[2.03803,41.44238],[2.03853,41.44262],[2.03914,41.44296],[2.03996,41.4435],[2.0401,41.44361],[2.04042,41.44389],[2.04105,41.4442],[2.04242,41.4444],[2.04381,41.44445],[2.0455,41.44464],[2.04572,41.44472],[2.04638,41.44486],[2.04657,41.44488],[2.04698,41.44489],[2.04719,41.44486],[2.048,41.44471],[2.0484,41.44462],[2.04983,41.44465],[2.05155,41.44491],[2.05259,41.44499],[2.05375,41.44523],[2.05402,41.44541],[2.05415,41.44548],[2.0543,41.44552],[2.05475,41.44556],[2.05489,41.44554],[2.05596,41.44522],[2.05625,41.44506],[2.05657,41.445],[2.057,41.44495],[2.05762,41.44494],[2.05955,41.44491],[2.06077,41.44499],[2.06192,41.44465],[2.06364,41.44377],[2.06388,41.44345],[2.06396,41.44321],[2.06418,41.44214],[2.06382,41.44178],[2.06274,41.43961],[2.0621,41.43822],[2.06165,41.43761],[2.06132,41.4375],[2.06059,41.43753],[2.05985,41.43765],[2.05968,41.4374],[2.05943,41.4367],[2.05953,41.43635],[2.05954,41.43614],[2.05949,41.43583],[2.05936,41.43539],[2.05932,41.43507],[2.05936,41.43479],[2.0595,41.43448],[2.05983,41.43412],[2.06002,41.43396],[2.06093,41.43368],[2.06212,41.43336],[2.06291,41.43358],[2.06331,41.43261],[2.06346,41.43207],[2.06366,41.43113],[2.06411,41.43046],[2.06458,41.42991],[2.06554,41.4299],[2.06641,41.42981],[2.06781,41.42954],[2.06783,41.42913],[2.06772,41.42874],[2.06711,41.42787],[2.067,41.42774],[2.06682,41.42739],[2.0668,41.42732],[2.06702,41.42636],[2.06704,41.42627],[2.06766,41.42599],[2.06934,41.42527],[2.06967,41.42518],[2.0694,41.42335],[2.06954,41.42305],[2.06996,41.42134],[2.07024,41.42016],[2.07049,41.41881],[2.07054,41.41866],[2.07084,41.41832],[2.07091,41.41828],[2.07112,41.41824],[2.07169,41.41828],[2.07233,41.41827],[2.07334,41.41766],[2.07391,41.41726],[2.07398,41.41702],[2.07421,41.41662],[2.07428,41.41656],[2.07498,41.41625],[2.07754,41.41541],[2.07858,41.41498],[2.07907,41.41494],[2.07912,41.41498],[2.07974,41.41566],[2.07981,41.41625],[2.07875,41.4179],[2.07799,41.41864],[2.07765,41.4186],[2.07695,41.41939],[2.07701,41.42058],[2.07665,41.4212],[2.07628,41.42138],[2.07548,41.42184],[2.07534,41.42198],[2.07544,41.42207],[2.07606,41.42231],[2.0772,41.42242],[2.07805,41.42253],[2.0787,41.42266],[2.07906,41.42275],[2.08007,41.42306],[2.08016,41.42318],[2.08059,41.42406],[2.08023,41.42449],[2.07812,41.42494],[2.07714,41.42505],[2.07663,41.42505],[2.07545,41.42496],[2.07493,41.42491],[2.07454,41.42478],[2.07415,41.42481],[2.07319,41.42494],[2.07301,41.42499],[2.0727,41.42515],[2.07262,41.42562],[2.0732,41.42746],[2.07459,41.42811],[2.07546,41.42836],[2.07662,41.42871],[2.07648,41.4289],[2.0763,41.42902],[2.07527,41.42961],[2.0736,41.43042],[2.07312,41.43067],[2.07148,41.43308],[2.071,41.43419],[2.07094,41.4344],[2.07098,41.43474],[2.07106,41.43505],[2.07118,41.4353],[2.07167,41.43617],[2.07177,41.4363],[2.07181,41.43633],[2.07261,41.43655],[2.07303,41.43661],[2.07334,41.43645],[2.07329,41.43635],[2.0731,41.43616],[2.07252,41.4355],[2.07255,41.43547],[2.07309,41.43523],[2.07319,41.43521],[2.07349,41.43525],[2.07395,41.43535],[2.07433,41.43535],[2.07477,41.4353],[2.07499,41.43486],[2.07512,41.43457],[2.07513,41.43446],[2.07506,41.43393],[2.07558,41.43294],[2.07722,41.43252],[2.07883,41.43197],[2.07964,41.43194],[2.07989,41.43192],[2.07997,41.43189],[2.08013,41.4318],[2.08022,41.43171],[2.08026,41.43156],[2.08027,41.43142],[2.08023,41.43125],[2.08017,41.43114],[2.08013,41.43093],[2.08022,41.43082],[2.08043,41.43073],[2.08069,41.43066],[2.08084,41.43063],[2.08098,41.43063],[2.08117,41.43068],[2.08125,41.43077],[2.08122,41.43096],[2.08112,41.4311],[2.08112,41.43124],[2.08117,41.43132],[2.08144,41.43158],[2.08204,41.43167],[2.08219,41.43166],[2.08232,41.43163],[2.08258,41.43148],[2.08252,41.43133],[2.08409,41.42989],[2.08558,41.42907],[2.08573,41.429],[2.08606,41.42894],[2.08646,41.42888],[2.08811,41.42868],[2.08885,41.42882],[2.09016,41.42887],[2.09101,41.42907],[2.09206,41.42953],[2.09244,41.42993],[2.09334,41.43098],[2.09404,41.43203],[2.09484,41.43276],[2.09607,41.43327],[2.09623,41.43317],[2.09672,41.43274],[2.09721,41.43245],[2.09766,41.43222],[2.09851,41.43193],[2.09894,41.4317],[2.09891,41.43147],[2.09872,41.43089],[2.09915,41.43012],[2.09956,41.43014],[2.0999,41.43011],[2.10097,41.42984],[2.10115,41.42979],[2.10126,41.42972],[2.1017,41.42922],[2.10211,41.42869],[2.10213,41.42867],[2.10322,41.42807],[2.10359,41.42811],[2.10404,41.42836],[2.10436,41.42853],[2.10531,41.42884],[2.10575,41.42878],[2.10668,41.42863],[2.1084,41.42872],[2.10901,41.42875],[2.1092,41.42873],[2.11015,41.42848],[2.11094,41.42829],[2.11116,41.42829],[2.11174,41.42833],[2.11186,41.42835],[2.11202,41.42842],[2.11246,41.42859],[2.11332,41.4285],[2.11448,41.42806],[2.11508,41.42782],[2.11536,41.42759],[2.11542,41.42749],[2.11543,41.42738],[2.11541,41.42719],[2.11541,41.42695],[2.11546,41.42688],[2.11566,41.42678],[2.11681,41.42642],[2.11893,41.42581],[2.11956,41.42574],[2.12127,41.42583],[2.122,41.42653],[2.12308,41.42869],[2.12387,41.42944],[2.12411,41.42961],[2.12653,41.43161],[2.12679,41.43214],[2.12735,41.43284],[2.12815,41.43348],[2.12869,41.43477],[2.12884,41.43525],[2.12884,41.43581],[2.1288,41.43621],[2.12877,41.43629],[2.12922,41.43762],[2.12936,41.43938],[2.12985,41.44054],[2.12951,41.44174],[2.1295,41.44191],[2.1298,41.44235],[2.12994,41.44247],[2.12997,41.44265],[2.12994,41.44303],[2.12923,41.44346],[2.12797,41.44428],[2.12712,41.44477],[2.12564,41.44541],[2.12472,41.44652],[2.12179,41.44855],[2.12152,41.4486],[2.12122,41.4487],[2.1209,41.44886],[2.12082,41.44892],[2.12074,41.44901],[2.12008,41.44994],[2.12,41.45007],[2.11996,41.45021],[2.11994,41.4504],[2.11992,41.45068],[2.11998,41.45118],[2.11999,41.45148],[2.11998,41.45165],[2.11994,41.45182],[2.11974,41.45246],[2.11961,41.45271],[2.11961,41.45413],[2.11977,41.4545],[2.11993,41.45506],[2.11995,41.45518],[2.11995,41.45536],[2.11993,41.45559],[2.11988,41.45574],[2.11978,41.45582],[2.1196,41.4559],[2.11895,41.4561],[2.11839,41.4563],[2.1183,41.45634],[2.11826,41.45643],[2.11803,41.45802],[2.11769,41.45862],[2.11705,41.45917],[2.11633,41.45987],[2.11591,41.4609],[2.11621,41.46177],[2.11636,41.4622],[2.11631,41.46314],[2.11634,41.4633],[2.1164,41.46342],[2.11672,41.46388],[2.11714,41.4642],[2.11727,41.46429],[2.11732,41.46437],[2.1175,41.465],[2.11754,41.46525],[2.11762,41.46608],[2.11742,41.46616],[2.1139,41.46579],[2.11238,41.46599],[2.11212,41.46614],[2.11182,41.46629],[2.11085,41.46675],[2.11061,41.46682],[2.10991,41.46692],[2.1095,41.46698],[2.10878,41.46714],[2.10866,41.46717],[2.10803,41.46741],[2.10792,41.46746],[2.10659,41.46809],[2.10633,41.46824],[2.10621,41.46836],[2.10616,41.46848],[2.10611,41.46869],[2.10607,41.46911],[2.10607,41.46938],[2.10524,41.47054],[2.10491,41.47102],[2.10455,41.4716],[2.10468,41.47216],[2.10466,41.4726],[2.10434,41.4728],[2.10363,41.47308],[2.10311,41.47322],[2.10275,41.4733],[2.10166,41.47407],[2.10031,41.47539],[2.09505,41.48037],[2.09136,41.48263],[2.09021,41.48362],[2.08205,41.48892],[2.07887,41.49499],[2.07422,41.49728],[2.07437,41.49748],[2.07449,41.49758],[2.07476,41.49851],[2.07499,41.49956],[2.0751,41.50065],[2.07519,41.50203],[2.07516,41.50334],[2.07508,41.50357],[2.07499,41.50386],[2.07499,41.50397],[2.07506,41.5047],[2.07525,41.50525],[2.07525,41.50623],[2.07518,41.5066]]]},"properties":{"codi_ine":"08205","nom":"Sant Cugat del Vallès","comarca":"Vallès Occidental"}},{"type":"Feature","geometry":{"type":"Polygon","coordinates":[[[2.07858,41.41498],[2.07754,41.41541],[2.07498,41.41625],[2.07428,41.41656],[2.07421,41.41662],[2.07398,41.41702],[2.07391,41.41726],[2.07334,41.41766],[2.07233,41.41827],[2.07169,41.41828],[2.07112,41.41824],[2.07091,41.41828],[2.07084,41.41832],[2.07054,41.41866],[2.07049,41.41881],[2.07003,41.41869],[2.06788,41.41839],[2.06605,41.41814],[2.06562,41.41814],[2.065,41.41812],[2.06473,41.41804],[2.06449,41.41795],[2.06431,41.41784],[2.06499,41.41663],[2.0649,41.41609],[2.06421,41.41439],[2.06416,41.4143],[2.06353,41.41356],[2.06263,41.4136],[2.06148,41.41294],[2.06078,41.41273],[2.06019,41.41268],[2.0592,41.41278],[2.05852,41.41274],[2.05887,41.41246],[2.05907,41.41226],[2.059,41.41099],[2.05877,41.41065],[2.05744,41.41033],[2.05685,41.41033],[2.05513,41.4121],[2.05485,41.41341],[2.05464,41.41395],[2.05456,41.41409],[2.05394,41.41441],[2.05357,41.41458],[2.05263,41.41473],[2.05227,41.41478],[2.05187,41.4148],[2.05158,41.41475],[2.05148,41.41471],[2.05044,41.41415],[2.0496,41.4137],[2.04901,41.41403],[2.04895,41.41403],[2.04856,41.41386],[2.04821,41.41356],[2.04803,41.41327],[2.04736,41.41182],[2.04739,41.41176],[2.04761,41.41158],[2.04768,41.41156],[2.04803,41.41153],[2.04826,41.41165],[2.04892,41.41129],[2.0495,41.41067],[2.04763,41.41022],[2.0454,41.40904],[2.04484,41.40881],[2.04388,41.40851],[2.04258,41.40829],[2.04236,41.40833],[2.04219,41.40835],[2.04199,41.40834],[2.04161,41.40828],[2.0413,41.40822],[2.04115,41.40817],[2.0409,41.40704],[2.04051,41.40643],[2.0402,41.40605],[2.03957,41.40487],[2.03941,41.40453],[2.03925,41.40433],[2.03911,41.4042],[2.03807,41.40384],[2.03778,41.40369],[2.03735,41.40331],[2.0362,41.40228],[2.03491,41.40126],[2.03291,41.39997],[2.03386,41.39889],[2.03472,41.39819],[2.03489,41.39797],[2.03532,41.39721],[2.03478,41.39662],[2.03424,41.39626],[2.03326,41.39577],[2.03239,41.39534],[2.02861,41.39332],[2.02698,41.39243],[2.02464,41.39112],[2.02291,41.39014],[2.02182,41.38978],[2.02212,41.38949],[2.02231,41.38928],[2.02263,41.38878],[2.02348,41.38766],[2.0243,41.38671],[2.02585,41.38463],[2.02621,41.38408],[2.02636,41.38381],[2.02653,41.38349],[2.02665,41.3832],[2.02719,41.38141],[2.02763,41.37999],[2.02788,41.37945],[2.02816,41.37899],[2.02843,41.37858],[2.02952,41.37716],[2.03025,41.37621],[2.03176,41.37429],[2.0324,41.37352],[2.03358,41.37213],[2.03431,41.3713],[2.03516,41.37053],[2.03565,41.37017],[2.03586,41.37079],[2.03605,41.37088],[2.03633,41.37097],[2.0379,41.37157],[2.04301,41.3738],[2.0437,41.37438],[2.04566,41.37524],[2.04585,41.37507],[2.0463,41.37533],[2.04759,41.37618],[2.04813,41.37656],[2.04915,41.37727],[2.04952,41.37754],[2.05059,41.37833],[2.05117,41.37874],[2.05163,41.37905],[2.05261,41.37954],[2.0536,41.37964],[2.05418,41.37968],[2.05487,41.37978],[2.05516,41.37984],[2.05584,41.38005],[2.05665,41.38032],[2.05663,41.38036],[2.05603,41.38131],[2.05641,41.38162],[2.05726,41.38206],[2.05766,41.38223],[2.05936,41.38294],[2.05783,41.3853],[2.05783,41.38563],[2.05793,41.38572],[2.05813,41.38577],[2.0582,41.38581],[2.05835,41.38601],[2.05838,41.38609],[2.05827,41.38696],[2.05804,41.38766],[2.05785,41.38802],[2.05782,41.38848],[2.05784,41.38853],[2.05869,41.38916],[2.05929,41.38956],[2.06068,41.39068],[2.06053,41.39086],[2.06045,41.39092],[2.05998,41.39174],[2.05957,41.39264],[2.05956,41.39282],[2.05961,41.39287],[2.06085,41.39348],[2.06127,41.39366],[2.06197,41.39394],[2.06219,41.39401],[2.06228,41.39402],[2.06328,41.39441],[2.06456,41.39531],[2.06506,41.3957],[2.06523,41.3959],[2.06528,41.39598],[2.06541,41.39628],[2.06613,41.39675],[2.0677,41.39688],[2.06877,41.39681],[2.06915,41.39689],[2.07002,41.39711],[2.07154,41.3977],[2.07204,41.39811],[2.07275,41.39837],[2.07356,41.39854],[2.07446,41.3988],[2.07632,41.39983],[2.07659,41.39999],[2.07675,41.40022],[2.07727,41.40106],[2.07744,41.40141],[2.07747,41.40169],[2.07767,41.4025],[2.07777,41.40287],[2.07757,41.40291],[2.07617,41.40316],[2.07488,41.40284],[2.07469,41.40287],[2.07375,41.4033],[2.07279,41.40316],[2.07219,41.40346],[2.07147,41.40473],[2.07105,41.40528],[2.0705,41.40604],[2.07027,41.40644],[2.07,41.40703],[2.07032,41.40723],[2.07152,41.40719],[2.07192,41.4074],[2.07206,41.40754],[2.07209,41.40766],[2.07185,41.40808],[2.07174,41.40823],[2.07143,41.40859],[2.07135,41.40876],[2.07136,41.40891],[2.07142,41.40915],[2.07215,41.41086],[2.07242,41.41115],[2.07324,41.4117],[2.07444,41.41212],[2.07597,41.41279],[2.07616,41.41322],[2.07629,41.41349],[2.07639,41.41364],[2.07658,41.41387],[2.07734,41.41463],[2.07858,41.41498]]]},"properties":{"codi_ine":"08211","nom":"Sant Feliu de Llobregat","comarca":"Baix Llobregat"}},{"type":"Feature","geometry":{"type":"Polygon","coordinates":[[[2.09779,41.39396],[2.09833,41.39461],[2.09976,41.39661],[2.10046,41.39835],[2.10116,41.39887],[2.10148,41.39903],[2.10168,41.39915],[2.10204,41.3995],[2.10267,41.40032],[2.1029,41.40088],[2.10309,41.4014],[2.10359,41.40268],[2.10378,41.40317],[2.10384,41.40339],[2.10384,41.40354],[2.10382,41.40384],[2.10379,41.40402],[2.10371,41.40424],[2.10359,41.4044],[2.1032,41.40464],[2.10286,41.40482],[2.10256,41.4049],[2.10175,41.4056],[2.10171,41.40645],[2.1016,41.407],[2.10156,41.40709],[2.10065,41.40826],[2.10028,41.40841],[2.099,41.40886],[2.09866,41.40895],[2.09816,41.40906],[2.09796,41.4091],[2.0976,41.40913],[2.09732,41.40911],[2.09727,41.40908],[2.09708,41.40893],[2.09695,41.4088],[2.09679,41.40857],[2.09666,41.40824],[2.09622,41.40797],[2.09617,41.40795],[2.09565,41.40785],[2.09475,41.40793],[2.09401,41.408],[2.09332,41.40814],[2.09222,41.40827],[2.09135,41.40824],[2.09032,41.40831],[2.0896,41.40844],[2.08867,41.40861],[2.08845,41.40867],[2.08759,41.40893],[2.08749,41.40898],[2.08726,41.40912],[2.08707,41.40927],[2.08689,41.40946],[2.08682,41.40949],[2.08654,41.40958],[2.086,41.40971],[2.08569,41.40974],[2.08546,41.40971],[2.08489,41.40958],[2.08457,41.4095],[2.08419,41.40939],[2.08413,41.40928],[2.08396,41.40878],[2.08354,41.40828],[2.08256,41.40725],[2.08162,41.40664],[2.08091,41.40633],[2.08042,41.40596],[2.08036,41.40587],[2.08028,41.40566],[2.08028,41.40539],[2.08031,41.40515],[2.0802,41.40475],[2.08012,41.40455],[2.08006,41.40446],[2.07994,41.40435],[2.07874,41.40322],[2.07859,41.40312],[2.07798,41.40291],[2.07777,41.40287],[2.07767,41.4025],[2.07747,41.40169],[2.07744,41.40141],[2.07727,41.40106],[2.07675,41.40022],[2.07659,41.39999],[2.07632,41.39983],[2.07446,41.3988],[2.07356,41.39854],[2.07275,41.39837],[2.07204,41.39811],[2.07154,41.3977],[2.07002,41.39711],[2.06915,41.39689],[2.06877,41.39681],[2.0677,41.39688],[2.06613,41.39675],[2.06541,41.39628],[2.06528,41.39598],[2.06523,41.3959],[2.06506,41.3957],[2.06456,41.39531],[2.06328,41.39441],[2.06228,41.39402],[2.06219,41.39401],[2.06197,41.39394],[2.06127,41.39366],[2.06085,41.39348],[2.05961,41.39287],[2.05956,41.39282],[2.05957,41.39264],[2.05998,41.39174],[2.06045,41.39092],[2.06053,41.39086],[2.06068,41.39068],[2.05929,41.38956],[2.05869,41.38916],[2.05784,41.38853],[2.05782,41.38848],[2.05785,41.38802],[2.05804,41.38766],[2.05827,41.38696],[2.05838,41.38609],[2.05835,41.38601],[2.0582,41.38581],[2.05813,41.38577],[2.05793,41.38572],[2.05783,41.38563],[2.05783,41.3853],[2.05936,41.38294],[2.05766,41.38223],[2.05726,41.38206],[2.05641,41.38162],[2.05603,41.38131],[2.05663,41.38036],[2.05665,41.38032],[2.05584,41.38005],[2.05516,41.37984],[2.05487,41.37978],[2.05418,41.37968],[2.0536,41.37964],[2.05261,41.37954],[2.05254,41.37921],[2.05263,41.37899],[2.05272,41.3788],[2.05289,41.3786],[2.05305,41.37847],[2.05331,41.3783],[2.0535,41.37821],[2.05369,41.37815],[2.05396,41.37825],[2.05459,41.37828],[2.05521,41.37825],[2.05627,41.37813],[2.05816,41.3779],[2.05907,41.37777],[2.05963,41.37925],[2.06075,41.37911],[2.06296,41.37929],[2.06492,41.37944],[2.06546,41.37901],[2.06609,41.37837],[2.06682,41.37762],[2.06802,41.37689],[2.06997,41.37623],[2.07142,41.3755],[2.07275,41.3754],[2.07523,41.3734],[2.07565,41.37387],[2.07576,41.37404],[2.07584,41.37421],[2.0762,41.37515],[2.0764,41.37542],[2.0766,41.37556],[2.07746,41.3759],[2.07955,41.37711],[2.08024,41.37769],[2.08066,41.37831],[2.08076,41.3789],[2.08066,41.37921],[2.08029,41.3806],[2.08027,41.38091],[2.08107,41.38132],[2.08189,41.38175],[2.08191,41.38207],[2.08202,41.38295],[2.08287,41.38281],[2.08333,41.38389],[2.08365,41.38487],[2.08373,41.38531],[2.08373,41.38571],[2.08392,41.38698],[2.08419,41.38774],[2.08548,41.38887],[2.08647,41.38938],[2.08718,41.38965],[2.08824,41.38981],[2.08852,41.38978],[2.09,41.39021],[2.09067,41.39097],[2.09212,41.39253],[2.09245,41.39284],[2.09359,41.39375],[2.09388,41.39394],[2.09408,41.39398],[2.09677,41.39436],[2.09695,41.39435],[2.09779,41.39396]]]},"properties":{"codi_ine":"08221","nom":"Sant Just Desvern","comarca":"Baix Llobregat"}},{"type":"Feature","geometry":{"type":"Polygon","coordinates":[[[2.21095,41.47101],[2.21082,41.471],[2.21063,41.47096],[2.21043,41.47089],[2.20989,41.47068],[2.2097,41.47059],[2.20893,41.47043],[2.20703,41.47032],[2.20659,41.47031],[2.20634,41.47032],[2.20615,41.47035],[2.20592,41.47041],[2.20463,41.47092],[2.20447,41.471],[2.20422,41.4712],[2.19987,41.47338],[2.19975,41.47342],[2.19946,41.47338],[2.19881,41.47317],[2.19841,41.47302],[2.19814,41.4729],[2.1964,41.47249],[2.19552,41.47235],[2.19519,41.4724],[2.19451,41.47244],[2.19414,41.47238],[2.19398,41.47234],[2.19376,41.47226],[2.1934,41.4721],[2.19329,41.47203],[2.19315,41.47191],[2.19065,41.47061],[2.18914,41.4708],[2.18893,41.47084],[2.18706,41.46772],[2.18718,41.46629],[2.18745,41.4638],[2.18764,41.46213],[2.18768,41.4618],[2.18772,41.46162],[2.1878,41.46131],[2.18796,41.46083],[2.18806,41.4606],[2.1882,41.46029],[2.18846,41.45982],[2.18861,41.45958],[2.18883,41.45927],[2.18901,41.45904],[2.18937,41.45864],[2.18979,41.45822],[2.19062,41.45743],[2.19096,41.45714],[2.19131,41.45685],[2.19171,41.45655],[2.19451,41.45454],[2.19528,41.45399],[2.19699,41.45279],[2.19771,41.45228],[2.19811,41.45198],[2.19848,41.45167],[2.19918,41.45107],[2.19957,41.45072],[2.2007,41.44962],[2.20194,41.44839],[2.20321,41.4471],[2.20561,41.44458],[2.20588,41.44428],[2.2063,41.44381],[2.20683,41.44312],[2.20694,41.44296],[2.20732,41.44237],[2.20747,41.44212],[2.20766,41.44177],[2.20783,41.44144],[2.20799,41.4411],[2.20823,41.44052],[2.2084,41.44],[2.20847,41.43977],[2.20863,41.43919],[2.20941,41.43639],[2.20963,41.43576],[2.2098,41.43531],[2.20998,41.43491],[2.21017,41.43452],[2.2103,41.43425],[2.21076,41.43343],[2.21304,41.4343],[2.21337,41.43438],[2.21363,41.43439],[2.21418,41.43463],[2.21467,41.43492],[2.21402,41.43569],[2.21281,41.43688],[2.2127,41.43721],[2.2135,41.43816],[2.2131,41.4398],[2.21378,41.44056],[2.21554,41.44248],[2.21724,41.44392],[2.21835,41.44498],[2.21933,41.44588],[2.22016,41.44638],[2.22152,41.44795],[2.22258,41.44897],[2.22275,41.449],[2.21678,41.45764],[2.21812,41.45871],[2.2184,41.45925],[2.21835,41.46026],[2.22028,41.46065],[2.22082,41.46167],[2.22028,41.46223],[2.21977,41.46278],[2.22092,41.46433],[2.22146,41.46513],[2.21169,41.47065],[2.21095,41.47101]]]},"properties":{"codi_ine":"08245","nom":"Santa Coloma de Gramenet","comarca":"Barcelonès"}},{"type":"Feature","geometry":{"type":"Polygon","coordinates":[[[2.08865,41.51123],[2.08868,41.51146],[2.0854,41.51075],[2.08449,41.51038],[2.08343,41.5101],[2.08239,41.5099],[2.08119,41.50977],[2.08034,41.50819],[2.0798,41.50761],[2.07965,41.5075],[2.0794,41.5074],[2.07845,41.50713],[2.07726,41.5068],[2.07677,41.50668],[2.07603,41.50662],[2.07518,41.5066],[2.07525,41.50623],[2.07525,41.50525],[2.07506,41.5047],[2.07499,41.50397],[2.07499,41.50386],[2.07508,41.50357],[2.07516,41.50334],[2.07519,41.50203],[2.0751,41.50065],[2.07499,41.49956],[2.07476,41.49851],[2.07449,41.49758],[2.07437,41.49748],[2.07422,41.49728],[2.07887,41.49499],[2.08205,41.48892],[2.09021,41.48362],[2.09136,41.48263],[2.09505,41.48037],[2.10031,41.47539],[2.10166,41.47407],[2.10275,41.4733],[2.10311,41.47322],[2.10363,41.47308],[2.10434,41.4728],[2.10466,41.4726],[2.10468,41.47216],[2.10455,41.4716],[2.10491,41.47102],[2.10524,41.47054],[2.10607,41.46938],[2.10607,41.46911],[2.10611,41.46869],[2.10616,41.46848],[2.10621,41.46836],[2.10633,41.46824],[2.10659,41.46809],[2.10792,41.46746],[2.10803,41.46741],[2.10866,41.46717],[2.10878,41.46714],[2.1095,41.46698],[2.10991,41.46692],[2.11061,41.46682],[2.11085,41.46675],[2.11182,41.46629],[2.11212,41.46614],[2.11238,41.46599],[2.1139,41.46579],[2.11742,41.46616],[2.11762,41.46608],[2.11754,41.46525],[2.1175,41.465],[2.11732,41.46437],[2.11727,41.46429],[2.11714,41.4642],[2.11672,41.46388],[2.1164,41.46342],[2.11634,41.4633],[2.11631,41.46314],[2.11636,41.4622],[2.11621,41.46177],[2.11591,41.4609],[2.11633,41.45987],[2.11705,41.45917],[2.11769,41.45862],[2.11803,41.45802],[2.11826,41.45643],[2.1183,41.45634],[2.11839,41.4563],[2.11895,41.4561],[2.1196,41.4559],[2.11978,41.45582],[2.11988,41.45574],[2.11993,41.45559],[2.11995,41.45536],[2.11995,41.45518],[2.11993,41.45506],[2.11977,41.4545],[2.11961,41.45413],[2.11961,41.45271],[2.11974,41.45246],[2.11994,41.45182],[2.11998,41.45165],[2.11999,41.45148],[2.11998,41.45118],[2.11992,41.45068],[2.11994,41.4504],[2.11996,41.45021],[2.12,41.45007],[2.12008,41.44994],[2.12074,41.44901],[2.12082,41.44892],[2.1209,41.44886],[2.12122,41.4487],[2.12152,41.4486],[2.12179,41.44855],[2.12472,41.44652],[2.12564,41.44541],[2.12712,41.44477],[2.12797,41.44428],[2.12923,41.44346],[2.12994,41.44303],[2.13064,41.44371],[2.13202,41.44415],[2.13291,41.44494],[2.13361,41.4458],[2.13461,41.44725],[2.1352,41.44754],[2.13634,41.44761],[2.13694,41.44765],[2.13749,41.44783],[2.1383,41.44785],[2.1405,41.44748],[2.1411,41.44731],[2.14257,41.44714],[2.14303,41.44745],[2.14351,41.44762],[2.14399,41.44777],[2.14476,41.44786],[2.14521,41.44788],[2.14624,41.44764],[2.14709,41.44722],[2.14725,41.44711],[2.14758,41.44695],[2.14781,41.44687],[2.14842,41.44676],[2.14864,41.44679],[2.14906,41.44695],[2.14915,41.44701],[2.15115,41.44719],[2.15221,41.44718],[2.15306,41.44773],[2.15331,41.44797],[2.15341,41.44859],[2.15343,41.44865],[2.15356,41.4488],[2.15433,41.44935],[2.15584,41.44993],[2.15856,41.45375],[2.15836,41.45486],[2.15801,41.4555],[2.1578,41.45565],[2.15744,41.45568],[2.15697,41.45611],[2.15722,41.45788],[2.15731,41.45839],[2.15738,41.45863],[2.15782,41.45954],[2.15852,41.46024],[2.15779,41.46106],[2.15825,41.462],[2.15871,41.46279],[2.15921,41.46348],[2.15967,41.46427],[2.15983,41.4646],[2.15985,41.46473],[2.1598,41.46547],[2.15962,41.46583],[2.15865,41.46628],[2.15845,41.46644],[2.15807,41.46706],[2.15807,41.46716],[2.15826,41.46749],[2.15843,41.46764],[2.15855,41.46785],[2.15868,41.46827],[2.15826,41.46822],[2.15624,41.46702],[2.15571,41.46724],[2.15652,41.4731],[2.15535,41.47469],[2.1548,41.47491],[2.15417,41.47515],[2.15771,41.47995],[2.15724,41.48184],[2.15863,41.48329],[2.15906,41.48377],[2.15958,41.48479],[2.15731,41.48611],[2.15524,41.48724],[2.15362,41.48831],[2.15326,41.48863],[2.15237,41.48968],[2.15277,41.48989],[2.15143,41.49085],[2.14812,41.49327],[2.14959,41.49412],[2.14521,41.49733],[2.14393,41.49633],[2.14318,41.49687],[2.14286,41.49712],[2.13818,41.50238],[2.13508,41.50588],[2.13494,41.50596],[2.126,41.50624],[2.1257,41.50597],[2.12556,41.50587],[2.12477,41.50542],[2.12406,41.50504],[2.12274,41.50427],[2.12232,41.50401],[2.12161,41.50357],[2.12109,41.50323],[2.12033,41.5027],[2.11982,41.50288],[2.11956,41.50299],[2.11774,41.50379],[2.11742,41.50395],[2.11727,41.50399],[2.11612,41.50422],[2.11488,41.50442],[2.11345,41.50454],[2.11268,41.5046],[2.11193,41.50467],[2.11071,41.50485],[2.11033,41.50492],[2.10992,41.50504],[2.10981,41.50511],[2.10966,41.50529],[2.10927,41.50595],[2.10905,41.50642],[2.10902,41.50651],[2.10792,41.50718],[2.10701,41.50771],[2.10485,41.50674],[2.1035,41.5075],[2.10243,41.50828],[2.10185,41.50873],[2.1003,41.50989],[2.10008,41.51003],[2.09991,41.5101],[2.09976,41.51014],[2.09952,41.51015],[2.09919,41.51015],[2.09803,41.5101],[2.09617,41.50995],[2.09517,41.50985],[2.09429,41.50976],[2.09355,41.50967],[2.09168,41.50957],[2.08973,41.50949],[2.08961,41.50949],[2.08936,41.50976],[2.08917,41.51],[2.08871,41.51123],[2.08865,41.51123]]]},"properties":{"codi_ine":"08266","nom":"Cerdanyola del Vallès","comarca":"Vallès Occidental"}}]}